{"type": "FeatureCollection", "features": [ {"type": "Feature", "properties": {"norad_id": 66879, "name": "STARLINK-35749", "group": "last-30-days", "lat": 0.9585601596070749, "lon": -177.4337713244437, "alt_km": 404.8262392783945, "timestamp": "2025-12-26T22:28:04.498970+00:00", "meta": {"OBJECT_NAME": "STARLINK-35749", "OBJECT_ID": "2025-283B", "EPOCH": "2025-12-26T18:00:02.998944", "MEAN_MOTION": 15.55244569, "ECCENTRICITY": 0.0001517, "INCLINATION": 53.1597, "RA_OF_ASC_NODE": 4.1826, "ARG_OF_PERICENTER": 84.0328, "MEAN_ANOMALY": 132.2272, "EPHEMERIS_TYPE": 0, "CLASSIFICATION_TYPE": "U", "NORAD_CAT_ID": 66879, "ELEMENT_SET_NO": 999, "REV_AT_EPOCH": 468, "BSTAR": -0.033359, "MEAN_MOTION_DOT": -0.02050279, "MEAN_MOTION_DDOT": 0}, "tle": {"line1": "1 66879U 25283B   25360.75003471 -.02050279  00000+0 -33359-1 0  9999", "line2": "2 66879  53.1597   4.1826 0001517  84.0328 132.2272 15.55244569  4681"}}, "geometry": {"type": "Point", "coordinates": [-177.4337713244437, 0.9585601596070749]}}, {"type": "Feature", "properties": {"norad_id": 66880, "name": "STARLINK-35844", "group": "last-30-days", "lat": 2.4930037894218335, "lon": -178.58073206686262, "alt_km": 404.5301507543991, "timestamp": "2025-12-26T22:28:04.498980+00:00", "meta": {"OBJECT_NAME": "STARLINK-35844", "OBJECT_ID": "2025-283C", "EPOCH": "2025-12-26T18:00:02.998944", "MEAN_MOTION": 15.55249118, "ECCENTRICITY": 0.0001337, "INCLINATION": 53.1596, "RA_OF_ASC_NODE": 4.1875, "ARG_OF_PERICENTER": 87.084, "MEAN_ANOMALY": 127.2579, "EPHEMERIS_TYPE": 0, "CLASSIFICATION_TYPE": "U", "NORAD_CAT_ID": 66880, "ELEMENT_SET_NO": 999, "REV_AT_EPOCH": 468, "BSTAR": -0.033449, "MEAN_MOTION_DOT": -0.02055425, "MEAN_MOTION_DDOT": 0}, "tle": {"line1": "1 66880U 25283C   25360.75003471 -.02055425  00000+0 -33449-1 0  9999", "line2": "2 66880  53.1596   4.1875 0001337  87.0840 127.2579 15.55249118  4687"}}, "geometry": {"type": "Point", "coordinates": [-178.58073206686262, 2.4930037894218335]}}, {"type": "Feature", "properties": {"norad_id": 66881, "name": "STARLINK-35860", "group": "last-30-days", "lat": -0.5738842089067853, "lon": -176.28845094446845, "alt_km": 405.0461159324259, "timestamp": "2025-12-26T22:28:04.498991+00:00", "meta": {"OBJECT_NAME": "STARLINK-35860", "OBJECT_ID": "2025-283D", "EPOCH": "2025-12-26T18:00:02.998944", "MEAN_MOTION": 15.55249796, "ECCENTRICITY": 0.000139, "INCLINATION": 53.1596, "RA_OF_ASC_NODE": 4.1789, "ARG_OF_PERICENTER": 84.0554, "MEAN_ANOMALY": 134.1186, "EPHEMERIS_TYPE": 0, "CLASSIFICATION_TYPE": "U", "NORAD_CAT_ID": 66881, "ELEMENT_SET_NO": 999, "REV_AT_EPOCH": 468, "BSTAR": -0.033466, "MEAN_MOTION_DOT": -0.02056436, "MEAN_MOTION_DDOT": 0}, "tle": {"line1": "1 66881U 25283D   25360.75003471 -.02056436  00000+0 -33466-1 0  9992", "line2": "2 66881  53.1596   4.1789 0001390  84.0554 134.1186 15.55249796  4683"}}, "geometry": {"type": "Point", "coordinates": [-176.28845094446845, -0.5738842089067853]}}, {"type": "Feature", "properties": {"norad_id": 66882, "name": "STARLINK-35912", "group": "last-30-days", "lat": -2.108514854840839, "lon": -175.14066918183448, "alt_km": 405.28546175362953, "timestamp": "2025-12-26T22:28:04.499001+00:00", "meta": {"OBJECT_NAME": "STARLINK-35912", "OBJECT_ID": "2025-283E", "EPOCH": "2025-12-26T18:00:02.998944", "MEAN_MOTION": 15.55242468, "ECCENTRICITY": 0.0001444, "INCLINATION": 53.1592, "RA_OF_ASC_NODE": 4.1752, "ARG_OF_PERICENTER": 83.8871, "MEAN_ANOMALY": 136.2074, "EPHEMERIS_TYPE": 0, "CLASSIFICATION_TYPE": "U", "NORAD_CAT_ID": 66882, "ELEMENT_SET_NO": 999, "REV_AT_EPOCH": 468, "BSTAR": -0.033234, "MEAN_MOTION_DOT": -0.02043271, "MEAN_MOTION_DDOT": 0}, "tle": {"line1": "1 66882U 25283E   25360.75003471 -.02043271  00000+0 -33234-1 0  9999", "line2": "2 66882  53.1592   4.1752 0001444  83.8871 136.2074 15.55242468  4687"}}, "geometry": {"type": "Point", "coordinates": [-175.14066918183448, -2.108514854840839]}}, {"type": "Feature", "properties": {"norad_id": 66883, "name": "STARLINK-35947", "group": "last-30-days", "lat": -3.640959163836492, "lon": -173.99096539888114, "alt_km": 405.37864839452595, "timestamp": "2025-12-26T22:28:04.499018+00:00", "meta": {"OBJECT_NAME": "STARLINK-35947", "OBJECT_ID": "2025-283F", "EPOCH": "2025-12-26T18:00:02.998944", "MEAN_MOTION": 15.55246276, "ECCENTRICITY": 0.0001421, "INCLINATION": 53.1597, "RA_OF_ASC_NODE": 4.1722, "ARG_OF_PERICENTER": 92.0228, "MEAN_ANOMALY": 129.987, "EPHEMERIS_TYPE": 0, "CLASSIFICATION_TYPE": "U", "NORAD_CAT_ID": 66883, "ELEMENT_SET_NO": 999, "REV_AT_EPOCH": 472, "BSTAR": -0.033358, "MEAN_MOTION_DOT": -0.02050284, "MEAN_MOTION_DDOT": 0}, "tle": {"line1": "1 66883U 25283F   25360.75003471 -.02050284  00000+0 -33358-1 0  9999", "line2": "2 66883  53.1597   4.1722 0001421  92.0228 129.9870 15.55246276  4722"}}, "geometry": {"type": "Point", "coordinates": [-173.99096539888114, -3.640959163836492]}}, {"type": "Feature", "properties": {"norad_id": 66884, "name": "STARLINK-36057", "group": "last-30-days", "lat": -6.699412302698155, "lon": -171.68233711125052, "alt_km": 405.84988876290936, "timestamp": "2025-12-26T22:28:04.499028+00:00", "meta": {"OBJECT_NAME": "STARLINK-36057", "OBJECT_ID": "2025-283G", "EPOCH": "2025-12-26T18:00:02.998944", "MEAN_MOTION": 15.55246392, "ECCENTRICITY": 0.0001248, "INCLINATION": 53.1599, "RA_OF_ASC_NODE": 4.163, "ARG_OF_PERICENTER": 88.3141, "MEAN_ANOMALY": 137.5297, "EPHEMERIS_TYPE": 0, "CLASSIFICATION_TYPE": "U", "NORAD_CAT_ID": 66884, "ELEMENT_SET_NO": 999, "REV_AT_EPOCH": 468, "BSTAR": -0.033361, "MEAN_MOTION_DOT": -0.02050335, "MEAN_MOTION_DDOT": 0}, "tle": {"line1": "1 66884U 25283G   25360.75003471 -.02050335  00000+0 -33361-1 0  9991", "line2": "2 66884  53.1599   4.1630 0001248  88.3141 137.5297 15.55246392  4684"}}, "geometry": {"type": "Point", "coordinates": [-171.68233711125052, -6.699412302698155]}}, {"type": "Feature", "properties": {"norad_id": 66885, "name": "STARLINK-35954", "group": "last-30-days", "lat": -5.1711181257304615, "lon": -172.83993766665498, "alt_km": 405.70122479783277, "timestamp": "2025-12-26T22:28:04.499038+00:00", "meta": {"OBJECT_NAME": "STARLINK-35954", "OBJECT_ID": "2025-283H", "EPOCH": "2025-12-26T18:00:02.998944", "MEAN_MOTION": 15.5524643, "ECCENTRICITY": 0.0001342, "INCLINATION": 53.1598, "RA_OF_ASC_NODE": 4.1672, "ARG_OF_PERICENTER": 84.684, "MEAN_ANOMALY": 139.2426, "EPHEMERIS_TYPE": 0, "CLASSIFICATION_TYPE": "U", "NORAD_CAT_ID": 66885, "ELEMENT_SET_NO": 999, "REV_AT_EPOCH": 468, "BSTAR": -0.033359, "MEAN_MOTION_DOT": -0.0205033, "MEAN_MOTION_DDOT": 0}, "tle": {"line1": "1 66885U 25283H   25360.75003471 -.02050330  00000+0 -33359-1 0  9994", "line2": "2 66885  53.1598   4.1672 0001342  84.6840 139.2426 15.55246430  4686"}}, "geometry": {"type": "Point", "coordinates": [-172.83993766665498, -5.1711181257304615]}}, {"type": "Feature", "properties": {"norad_id": 66886, "name": "STARLINK-35900", "group": "last-30-days", "lat": -8.226468352970501, "lon": -170.5165024073706, "alt_km": 406.10358423115395, "timestamp": "2025-12-26T22:28:04.499048+00:00", "meta": {"OBJECT_NAME": "STARLINK-35900", "OBJECT_ID": "2025-283J", "EPOCH": "2025-12-26T18:00:02.998944", "MEAN_MOTION": 15.55244739, "ECCENTRICITY": 0.0001378, "INCLINATION": 53.1596, "RA_OF_ASC_NODE": 4.1585, "ARG_OF_PERICENTER": 86.0977, "MEAN_ANOMALY": 141.6635, "EPHEMERIS_TYPE": 0, "CLASSIFICATION_TYPE": "U", "NORAD_CAT_ID": 66886, "ELEMENT_SET_NO": 999, "REV_AT_EPOCH": 468, "BSTAR": -0.033293, "MEAN_MOTION_DOT": -0.02046577, "MEAN_MOTION_DDOT": 0}, "tle": {"line1": "1 66886U 25283J   25360.75003471 -.02046577  00000+0 -33293-1 0  9990", "line2": "2 66886  53.1596   4.1585 0001378  86.0977 141.6635 15.55244739  4683"}}, "geometry": {"type": "Point", "coordinates": [-170.5165024073706, -8.226468352970501]}}, {"type": "Feature", "properties": {"norad_id": 66887, "name": "STARLINK-35925", "group": "last-30-days", "lat": -9.749425389905262, "lon": -169.34115646782357, "alt_km": 406.287722590896, "timestamp": "2025-12-26T22:28:04.499058+00:00", "meta": {"OBJECT_NAME": "STARLINK-35925", "OBJECT_ID": "2025-283K", "EPOCH": "2025-12-26T18:00:02.998944", "MEAN_MOTION": 15.55242724, "ECCENTRICITY": 0.0001419, "INCLINATION": 53.1598, "RA_OF_ASC_NODE": 4.1551, "ARG_OF_PERICENTER": 87.7852, "MEAN_ANOMALY": 141.8938, "EPHEMERIS_TYPE": 0, "CLASSIFICATION_TYPE": "U", "NORAD_CAT_ID": 66887, "ELEMENT_SET_NO": 999, "REV_AT_EPOCH": 468, "BSTAR": -0.033236, "MEAN_MOTION_DOT": -0.02043352, "MEAN_MOTION_DDOT": 0}, "tle": {"line1": "1 66887U 25283K   25360.75003471 -.02043352  00000+0 -33236-1 0  9996", "line2": "2 66887  53.1598   4.1551 0001419  87.7852 141.8938 15.55242724  4685"}}, "geometry": {"type": "Point", "coordinates": [-169.34115646782357, -9.749425389905262]}}, {"type": "Feature", "properties": {"norad_id": 66888, "name": "STARLINK-35919", "group": "last-30-days", "lat": -11.267814333012797, "lon": -168.15630494234148, "alt_km": 406.5521495455523, "timestamp": "2025-12-26T22:28:04.499068+00:00", "meta": {"OBJECT_NAME": "STARLINK-35919", "OBJECT_ID": "2025-283L", "EPOCH": "2025-12-26T18:00:02.998944", "MEAN_MOTION": 15.55240435, "ECCENTRICITY": 0.0001529, "INCLINATION": 53.16, "RA_OF_ASC_NODE": 4.1508, "ARG_OF_PERICENTER": 84.9967, "MEAN_ANOMALY": 146.5994, "EPHEMERIS_TYPE": 0, "CLASSIFICATION_TYPE": "U", "NORAD_CAT_ID": 66888, "ELEMENT_SET_NO": 999, "REV_AT_EPOCH": 468, "BSTAR": -0.033186, "MEAN_MOTION_DOT": -0.020405, "MEAN_MOTION_DDOT": 0}, "tle": {"line1": "1 66888U 25283L   25360.75003471 -.02040500  00000+0 -33186-1 0  9993", "line2": "2 66888  53.1600   4.1508 0001529  84.9967 146.5994 15.55240435  4681"}}, "geometry": {"type": "Point", "coordinates": [-168.15630494234148, -11.267814333012797]}}]}